start=new Date('2023-03-27T00:00:00.000Z').valueOf();
sats=[{"EPHEMERIS_TYPE":"0","CENTER_NAME":"EARTH","MEAN_ELEMENT_THEORY":"SGP4","PERIOD":"95.597","OBJECT_ID":"2021-040BK","MEAN_MOTION_DOT":"0.00044540","RCS_SIZE":"LARGE","EPOCH":"2023-03-26T02:20:22.328160","DECAY_DATE":null,"MEAN_ANOMALY":"314.6931","SITE":"AFETR","REV_AT_EPOCH":"10362","GP_ID":"228916281","ECCENTRICITY":"0.00015810","RA_OF_ASC_NODE":"8.0950","BSTAR":"0.00299680000000","APOAPSIS":"548.560","REF_FRAME":"TEME","SEMIMAJOR_AXIS":"6925.600","COUNTRY_CODE":"US","MEAN_MOTION_DDOT":"0.0000000000000","LAUNCH_DATE":"2021-05-09","ELEMENT_SET_NO":"999","TLE_LINE2":"2 48485  53.0536   8.0950 0001581  45.4187 314.6931 15.06318000103622","MEAN_MOTION":"15.06318000","FILE":"3871964","PERIAPSIS":"546.370","INCLINATION":"53.0536","NORAD_CAT_ID":"48485","TLE_LINE1":"1 48485U 21040BK  23085.09748065  .00044540  00000-0  29968-2 0  9996","OBJECT_NAME":"STARLINK-2500","OBJECT_TYPE":"PAYLOAD","ARG_OF_PERICENTER":"45.4187","CLASSIFICATION_TYPE":"U","TIME_SYSTEM":"UTC"},{"EPOCH":"2023-03-26T05:35:23.359200","DECAY_DATE":null,"SITE":"AFETR","MEAN_ANOMALY":"219.8679","RCS_SIZE":"LARGE","GP_ID":"228916531","REV_AT_EPOCH":"10364","MEAN_ELEMENT_THEORY":"SGP4","PERIOD":"95.596","EPHEMERIS_TYPE":"0","CENTER_NAME":"EARTH","MEAN_MOTION_DOT":"0.00027596","OBJECT_ID":"2021-040BL","NORAD_CAT_ID":"48486","PERIAPSIS":"546.471","FILE":"3871964","INCLINATION":"53.0538","TIME_SYSTEM":"UTC","CLASSIFICATION_TYPE":"U","TLE_LINE1":"1 48486U 21040BL  23085.23290925  .00027596  00000-0  18675-2 0  9995","OBJECT_NAME":"STARLINK-2496","OBJECT_TYPE":"PAYLOAD","ARG_OF_PERICENTER":"140.2410","APOAPSIS":"548.352","REF_FRAME":"TEME","SEMIMAJOR_AXIS":"6925.546","ECCENTRICITY":"0.00013580","RA_OF_ASC_NODE":"7.4761","BSTAR":"0.00186750000000","MEAN_MOTION_DDOT":"0.0000000000000","COUNTRY_CODE":"US","LAUNCH_DATE":"2021-05-09","TLE_LINE2":"2 48486  53.0538   7.4761 0001358 140.2410 219.8679 15.06335556103645","ELEMENT_SET_NO":"999","MEAN_MOTION":"15.06335556"},{"FILE":"3871964","PERIAPSIS":"546.345","INCLINATION":"53.0545","NORAD_CAT_ID":"48487","OBJECT_NAME":"STARLINK-2494","TLE_LINE1":"1 48487U 21040BM  23085.10489105  .00057608  00000-0  38557-2 0  9990","ARG_OF_PERICENTER":"113.9857","OBJECT_TYPE":"PAYLOAD","CLASSIFICATION_TYPE":"U","TIME_SYSTEM":"UTC","ECCENTRICITY":"0.00012880","RA_OF_ASC_NODE":"8.0647","BSTAR":"0.00385570000000","APOAPSIS":"548.129","SEMIMAJOR_AXIS":"6925.372","REF_FRAME":"TEME","COUNTRY_CODE":"US","MEAN_MOTION_DDOT":"0.0000000000000","LAUNCH_DATE":"2021-05-09","TLE_LINE2":"2 48487  53.0545   8.0647 0001288 113.9857 246.1267 15.06392277103636","MEAN_MOTION":"15.06392277","ELEMENT_SET_NO":"999","RCS_SIZE":"LARGE","EPOCH":"2023-03-26T02:31:02.586720","DECAY_DATE":null,"MEAN_ANOMALY":"246.1267","SITE":"AFETR","REV_AT_EPOCH":"10363","GP_ID":"228917783","EPHEMERIS_TYPE":"0","CENTER_NAME":"EARTH","MEAN_ELEMENT_THEORY":"SGP4","PERIOD":"95.593","OBJECT_ID":"2021-040BM","MEAN_MOTION_DOT":"0.00057608"},{"MEAN_MOTION_DOT":"0.00015762","OBJECT_ID":"2021-041A","MEAN_ELEMENT_THEORY":"SGP4","PERIOD":"95.594","CENTER_NAME":"EARTH","EPHEMERIS_TYPE":"0","GP_ID":"228917789","REV_AT_EPOCH":"10261","DECAY_DATE":null,"EPOCH":"2023-03-26T22:39:53.338176","SITE":"AFETR","MEAN_ANOMALY":"242.7870","RCS_SIZE":"LARGE","LAUNCH_DATE":"2021-05-15","MEAN_MOTION_DDOT":"0.0000000000000","COUNTRY_CODE":"US","TLE_LINE2":"2 48553  53.0543 294.2942 0001208 117.3242 242.7870 15.06371855102611","MEAN_MOTION":"15.06371855","ELEMENT_SET_NO":"999","APOAPSIS":"548.136","SEMIMAJOR_AXIS":"6925.435","REF_FRAME":"TEME","RA_OF_ASC_NODE":"294.2942","ECCENTRICITY":"0.00012080","BSTAR":"0.00107550000000","CLASSIFICATION_TYPE":"U","TIME_SYSTEM":"UTC","TLE_LINE1":"1 48553U 21041A   23085.94436734  .00015762  00000-0  10755-2 0  9992","OBJECT_NAME":"STARLINK-2063","ARG_OF_PERICENTER":"117.3242","OBJECT_TYPE":"PAYLOAD","NORAD_CAT_ID":"48553","FILE":"3871964","PERIAPSIS":"546.463","INCLINATION":"53.0543"},{"MEAN_ELEMENT_THEORY":"SGP4","PERIOD":"95.591","EPHEMERIS_TYPE":"0","CENTER_NAME":"EARTH","MEAN_MOTION_DOT":"0.00038920","OBJECT_ID":"2021-041B","EPOCH":"2023-03-26T21:14:55.902336","DECAY_DATE":null,"MEAN_ANOMALY":"281.5459","SITE":"AFETR","RCS_SIZE":"LARGE","GP_ID":"228917539","REV_AT_EPOCH":"10260","APOAPSIS":"547.833","SEMIMAJOR_AXIS":"6925.296","REF_FRAME":"TEME","ECCENTRICITY":"0.00009700","RA_OF_ASC_NODE":"294.5593","BSTAR":"0.00261620000000","COUNTRY_CODE":"US","MEAN_MOTION_DDOT":"0.0000000000000","LAUNCH_DATE":"2021-05-15","TLE_LINE2":"2 48554  53.0530 294.5593 0000970  78.5639 281.5459 15.06417016102609","ELEMENT_SET_NO":"999","MEAN_MOTION":"15.06417016","NORAD_CAT_ID":"48554","PERIAPSIS":"546.490","FILE":"3871964","INCLINATION":"53.0530","CLASSIFICATION_TYPE":"U","TIME_SYSTEM":"UTC","TLE_LINE1":"1 48554U 21041B   23085.88536924  .00038920  00000-0  26162-2 0  9998","OBJECT_NAME":"STARLINK-2139","OBJECT_TYPE":"PAYLOAD","ARG_OF_PERICENTER":"78.5639"},{"GP_ID":"228916788","REV_AT_EPOCH":"10246","SITE":"AFETR","MEAN_ANOMALY":"265.5934","EPOCH":"2023-03-26T21:56:04.746912","DECAY_DATE":null,"RCS_SIZE":"LARGE","MEAN_MOTION_DOT":"0.00022077","OBJECT_ID":"2021-041C","PERIOD":"95.593","MEAN_ELEMENT_THEORY":"SGP4","EPHEMERIS_TYPE":"0","CENTER_NAME":"EARTH","CLASSIFICATION_TYPE":"U","TIME_SYSTEM":"UTC","ARG_OF_PERICENTER":"94.5167","OBJECT_TYPE":"PAYLOAD","OBJECT_NAME":"STARLINK-2145","TLE_LINE1":"1 48555U 21041C   23085.91394383  .00022077  00000-0  14967-2 0  9990","NORAD_CAT_ID":"48555","INCLINATION":"53.0522","FILE":"3871964","PERIAPSIS":"546.558","ELEMENT_SET_NO":"999","TLE_LINE2":"2 48555  53.0522 304.4349 0000984  94.5167 265.5934 15.06391400102462","MEAN_MOTION":"15.06391400","COUNTRY_CODE":"US","MEAN_MOTION_DDOT":"0.0000000000000","LAUNCH_DATE":"2021-05-15","REF_FRAME":"TEME","SEMIMAJOR_AXIS":"6925.375","APOAPSIS":"547.921","BSTAR":"0.00149670000000","ECCENTRICITY":"0.00009840","RA_OF_ASC_NODE":"304.4349"},{"PERIOD":"95.591","MEAN_ELEMENT_THEORY":"SGP4","CENTER_NAME":"EARTH","EPHEMERIS_TYPE":"0","MEAN_MOTION_DOT":"0.00038785","OBJECT_ID":"2021-041D","SITE":"AFETR","MEAN_ANOMALY":"270.3606","DECAY_DATE":null,"EPOCH":"2023-03-26T21:40:07.318272","RCS_SIZE":"LARGE","GP_ID":"228917038","REV_AT_EPOCH":"10246","SEMIMAJOR_AXIS":"6925.286","REF_FRAME":"TEME","APOAPSIS":"547.843","BSTAR":"0.00260700000000","RA_OF_ASC_NODE":"304.4825","ECCENTRICITY":"0.00009990","TLE_LINE2":"2 48556  53.0526 304.4825 0000999  89.7498 270.3606 15.06420384102469","MEAN_MOTION":"15.06420384","ELEMENT_SET_NO":"999","LAUNCH_DATE":"2021-05-15","COUNTRY_CODE":"US","MEAN_MOTION_DDOT":"0.0000000000000","NORAD_CAT_ID":"48556","INCLINATION":"53.0526","FILE":"3871964","PERIAPSIS":"546.459","CLASSIFICATION_TYPE":"U","TIME_SYSTEM":"UTC","OBJECT_TYPE":"PAYLOAD","ARG_OF_PERICENTER":"89.7498","TLE_LINE1":"1 48556U 21041D   23085.90286248  .00038785  00000-0  26070-2 0  9991","OBJECT_NAME":"STARLINK-2151"},{"RCS_SIZE":"LARGE","SITE":"AFETR","MEAN_ANOMALY":"252.0012","EPOCH":"2023-03-26T20:11:16.564416","DECAY_DATE":null,"REV_AT_EPOCH":"10259","GP_ID":"228917289","EPHEMERIS_TYPE":"0","CENTER_NAME":"EARTH","PERIOD":"95.594","MEAN_ELEMENT_THEORY":"SGP4","OBJECT_ID":"2021-041E","MEAN_MOTION_DOT":"0.00013506","INCLINATION":"53.0529","FILE":"3871964","PERIAPSIS":"546.404","NORAD_CAT_ID":"48557","ARG_OF_PERICENTER":"108.1116","OBJECT_TYPE":"PAYLOAD","OBJECT_NAME":"STARLINK-2155","TLE_LINE1":"1 48557U 21041E   23085.84116394  .00013506  00000-0  92450-3 0  9999","TIME_SYSTEM":"UTC","CLASSIFICATION_TYPE":"U","BSTAR":"0.00092450000000","ECCENTRICITY":"0.00012780","RA_OF_ASC_NODE":"294.7585","SEMIMAJOR_AXIS":"6925.424","REF_FRAME":"TEME","APOAPSIS":"548.174","TLE_LINE2":"2 48557  53.0529 294.7585 0001278 108.1116 252.0012 15.06375335102598","ELEMENT_SET_NO":"999","MEAN_MOTION":"15.06375335","COUNTRY_CODE":"US","MEAN_MOTION_DDOT":"0.0000000000000","LAUNCH_DATE":"2021-05-15"},{"RCS_SIZE":"LARGE","SITE":"AFETR","MEAN_ANOMALY":"272.4297","DECAY_DATE":null,"EPOCH":"2023-03-26T20:05:54.514464","REV_AT_EPOCH":"10173","GP_ID":"228918040","CENTER_NAME":"EARTH","EPHEMERIS_TYPE":"0","PERIOD":"95.592","MEAN_ELEMENT_THEORY":"SGP4","OBJECT_ID":"2021-041F","MEAN_MOTION_DOT":"0.00019983","INCLINATION":"53.0522","FILE":"3871964","PERIAPSIS":"546.522","NORAD_CAT_ID":"48558","ARG_OF_PERICENTER":"87.6803","OBJECT_TYPE":"PAYLOAD","TLE_LINE1":"1 48558U 21041F   23085.83743651  .00019983  00000-0  13564-2 0  9994","OBJECT_NAME":"STARLINK-2166","CLASSIFICATION_TYPE":"U","TIME_SYSTEM":"UTC","BSTAR":"0.00135640000000","RA_OF_ASC_NODE":"294.7768","ECCENTRICITY":"0.00009740","SEMIMAJOR_AXIS":"6925.331","REF_FRAME":"TEME","APOAPSIS":"547.871","TLE_LINE2":"2 48558  53.0522 294.7768 0000974  87.6803 272.4297 15.06405624101732","ELEMENT_SET_NO":"999","MEAN_MOTION":"15.06405624","LAUNCH_DATE":"2021-05-15","COUNTRY_CODE":"US","MEAN_MOTION_DDOT":"0.0000000000000"},{"NORAD_CAT_ID":"48559","INCLINATION":"53.0527","FILE":"3871964","PERIAPSIS":"546.500","TIME_SYSTEM":"UTC","CLASSIFICATION_TYPE":"U","ARG_OF_PERICENTER":"63.3159","OBJECT_TYPE":"PAYLOAD","TLE_LINE1":"1 48559U 21041G   23085.87337263  .00015210  00000-0  10384-2 0  9993","OBJECT_NAME":"STARLINK-2167","REF_FRAME":"TEME","SEMIMAJOR_AXIS":"6925.416","APOAPSIS":"548.061","BSTAR":"0.00103840000000","RA_OF_ASC_NODE":"294.6170","ECCENTRICITY":"0.00011270","TLE_LINE2":"2 48559  53.0527 294.6170 0001127  63.3159 296.7945 15.06378024102597","ELEMENT_SET_NO":"999","MEAN_MOTION":"15.06378024","LAUNCH_DATE":"2021-05-15","MEAN_MOTION_DDOT":"0.0000000000000","COUNTRY_CODE":"US","SITE":"AFETR","MEAN_ANOMALY":"296.7945","DECAY_DATE":null,"EPOCH":"2023-03-26T20:57:39.395232","RCS_SIZE":"LARGE","GP_ID":"228916288","REV_AT_EPOCH":"10259","PERIOD":"95.594","MEAN_ELEMENT_THEORY":"SGP4","CENTER_NAME":"EARTH","EPHEMERIS_TYPE":"0","MEAN_MOTION_DOT":"0.00015210","OBJECT_ID":"2021-041G"}];
